[Satellite]
VERSION=1.1
NAME=CZ-6A DEB
NICKNAME=CZ-6A DEB
TLE1=1 54499U 22151JB  22342.46969054  .00000234  00000+0  74503-4 0  9999
TLE2=2 54499  98.7075 347.7832 0138260 204.5297 154.9274 14.44260405  3524
STATUS=0
